{
  "type": "FeatureCollection",
  "features": [
    {
      "type": "Feature",
      "properties": {
        "norad_id": 41330,
        "name": "COSMOS 2514 (751)",
        "group": "gnss",
        "lat": 6.271344727235445,
        "lon": 136.05085658515,
        "alt_km": 19109.35809551415,
        "timestamp": "2025-12-24T22:42:22.273610+00:00",
        "meta_object_name": "COSMOS 2514 (751)",
        "meta_object_id": "2016-008A",
        "meta_epoch": "2025-12-23T18:45:46.770912",
        "meta_mean_motion": 2.13102642,
        "meta_eccentricity": 0.00116336,
        "meta_inclination": 65.1274,
        "meta_ra_of_asc_node": 319.026,
        "meta_arg_of_pericenter": 220.0869,
        "meta_mean_anomaly": 139.8272,
        "meta_ephemeris_type": 0,
        "meta_classification_type": "U",
        "meta_norad_cat_id": 41330,
        "meta_element_set_no": 999,
        "meta_rev_at_epoch": 7688,
        "meta_bstar": 0,
        "meta_mean_motion_dot": -3.5e-07,
        "meta_mean_motion_ddot": 0,
        "tle_line1": "1 41330U 16008A   25357.78179133 -.00000035  00000+0  00000+0 0  9994",
        "tle_line2": "2 41330  65.1274 319.0260 0011633 220.0869 139.8272  2.13102642 76882"
      },
      "geometry": {
        "type": "Point",
        "coordinates": [
          136.05085658515,
          6.271344727235445
        ]
      }
    },
    {
      "type": "Feature",
      "properties": {
        "norad_id": 41384,
        "name": "IRNSS-1F",
        "group": "gnss",
        "lat": 0.5194139404534253,
        "lon": 106.7925086652168,
        "alt_km": 35879.881647761795,
        "timestamp": "2025-12-24T22:42:22.273628+00:00",
        "meta_object_name": "IRNSS-1F",
        "meta_object_id": "2016-015A",
        "meta_epoch": "2025-12-23T23:33:29.527200",
        "meta_mean_motion": 1.00278072,
        "meta_eccentricity": 0.00226621,
        "meta_inclination": 4.9093,
        "meta_ra_of_asc_node": 101.0199,
        "meta_arg_of_pericenter": 182.1246,
        "meta_mean_anomaly": 195.4962,
        "meta_ephemeris_type": 0,
        "meta_classification_type": "U",
        "meta_norad_cat_id": 41384,
        "meta_element_set_no": 999,
        "meta_rev_at_epoch": 3591,
        "meta_bstar": 0,
        "meta_mean_motion_dot": 1.77e-06,
        "meta_mean_motion_ddot": 0,
        "tle_line1": "1 41384U 16015A   25357.98159175  .00000177  00000+0  00000+0 0  9993",
        "tle_line2": "2 41384   4.9093 101.0199 0022662 182.1246 195.4962  1.00278072 35911"
      },
      "geometry": {
        "type": "Point",
        "coordinates": [
          106.7925086652168,
          0.5194139404534253
        ]
      }
    },
    {
      "type": "Feature",
      "properties": {
        "norad_id": 41434,
        "name": "BEIDOU-2 IGSO-6 (C13)",
        "group": "gnss",
        "lat": 43.433586192537135,
        "lon": -173.36538002203167,
        "alt_km": 35832.489807306185,
        "timestamp": "2025-12-24T22:42:22.273646+00:00",
        "meta_object_name": "BEIDOU-2 IGSO-6 (C13)",
        "meta_object_id": "2016-021A",
        "meta_epoch": "2025-12-18T14:33:38.837664",
        "meta_mean_motion": 1.00292299,
        "meta_eccentricity": 0.00610054,
        "meta_inclination": 59.9732,
        "meta_ra_of_asc_node": 39.8392,
        "meta_arg_of_pericenter": 230.2031,
        "meta_mean_anomaly": 129.1398,
        "meta_ephemeris_type": 0,
        "meta_classification_type": "U",
        "meta_norad_cat_id": 41434,
        "meta_element_set_no": 999,
        "meta_rev_at_epoch": 3566,
        "meta_bstar": 0,
        "meta_mean_motion_dot": -1.41e-06,
        "meta_mean_motion_ddot": 0,
        "tle_line1": "1 41434U 16021A   25352.60669951 -.00000141  00000+0  00000+0 0  9990",
        "tle_line2": "2 41434  59.9732  39.8392 0061005 230.2031 129.1398  1.00292299 35667"
      },
      "geometry": {
        "type": "Point",
        "coordinates": [
          -173.36538002203167,
          43.433586192537135
        ]
      }
    },
    {
      "type": "Feature",
      "properties": {
        "norad_id": 41469,
        "name": "IRNSS-1G",
        "group": "gnss",
        "lat": 4.657586992667882,
        "lon": -156.0698575832174,
        "alt_km": 35792.692862515956,
        "timestamp": "2025-12-24T22:42:22.273668+00:00",
        "meta_object_name": "IRNSS-1G",
        "meta_object_id": "2016-027A",
        "meta_epoch": "2025-12-23T22:21:51.634368",
        "meta_mean_motion": 1.0027454,
        "meta_eccentricity": 0.00026586,
        "meta_inclination": 4.762,
        "meta_ra_of_asc_node": 101.8112,
        "meta_arg_of_pericenter": 327.5849,
        "meta_mean_anomaly": 128.3342,
        "meta_ephemeris_type": 0,
        "meta_classification_type": "U",
        "meta_norad_cat_id": 41469,
        "meta_element_set_no": 999,
        "meta_rev_at_epoch": 3542,
        "meta_bstar": 0,
        "meta_mean_motion_dot": -3.15e-06,
        "meta_mean_motion_ddot": 0,
        "tle_line1": "1 41469U 16027A   25357.93184762 -.00000315  00000+0  00000+0 0  9990",
        "tle_line2": "2 41469   4.7620 101.8112 0002658 327.5849 128.3342  1.00274540 35428"
      },
      "geometry": {
        "type": "Point",
        "coordinates": [
          -156.0698575832174,
          4.657586992667882
        ]
      }
    },
    {
      "type": "Feature",
      "properties": {
        "norad_id": 41549,
        "name": "GSAT0211 (GALILEO 14)",
        "group": "gnss",
        "lat": -34.77043685512825,
        "lon": 75.42560621251117,
        "alt_km": 23237.4142549816,
        "timestamp": "2025-12-24T22:42:22.273686+00:00",
        "meta_object_name": "GSAT0211 (GALILEO 14)",
        "meta_object_id": "2016-030A",
        "meta_epoch": "2025-12-22T05:38:05.943264",
        "meta_mean_motion": 1.70473275,
        "meta_eccentricity": 0.00040882,
        "meta_inclination": 55.1491,
        "meta_ra_of_asc_node": 226.562,
        "meta_arg_of_pericenter": 17.521,
        "meta_mean_anomaly": 342.5988,
        "meta_ephemeris_type": 0,
        "meta_classification_type": "U",
        "meta_norad_cat_id": 41549,
        "meta_element_set_no": 999,
        "meta_rev_at_epoch": 5965,
        "meta_bstar": 0,
        "meta_mean_motion_dot": 7.3e-07,
        "meta_mean_motion_ddot": 0,
        "tle_line1": "1 41549U 16030A   25356.23479101  .00000073  00000+0  00000+0 0  9999",
        "tle_line2": "2 41549  55.1491 226.5620 0004088  17.5210 342.5988  1.70473275 59659"
      },
      "geometry": {
        "type": "Point",
        "coordinates": [
          75.42560621251117,
          -34.77043685512825
        ]
      }
    },
    {
      "type": "Feature",
      "properties": {
        "norad_id": 41550,
        "name": "GSAT0210 (GALILEO 13)",
        "group": "gnss",
        "lat": 48.570031478294936,
        "lon": -81.37472565430568,
        "alt_km": 23217.166418825578,
        "timestamp": "2025-12-24T22:42:22.273703+00:00",
        "meta_object_name": "GSAT0210 (GALILEO 13)",
        "meta_object_id": "2016-030B",
        "meta_epoch": "2025-12-23T01:53:26.064096",
        "meta_mean_motion": 1.704734,
        "meta_eccentricity": 5.527e-05,
        "meta_inclination": 55.1484,
        "meta_ra_of_asc_node": 226.5368,
        "meta_arg_of_pericenter": 180.205,
        "meta_mean_anomaly": 179.8969,
        "meta_ephemeris_type": 0,
        "meta_classification_type": "U",
        "meta_norad_cat_id": 41550,
        "meta_element_set_no": 999,
        "meta_rev_at_epoch": 5966,
        "meta_bstar": 0,
        "meta_mean_motion_dot": 7.3e-07,
        "meta_mean_motion_ddot": 0,
        "tle_line1": "1 41550U 16030B   25357.07877389  .00000073  00000+0  00000+0 0  9994",
        "tle_line2": "2 41550  55.1484 226.5368 0000552 180.2050 179.8969  1.70473400 59665"
      },
      "geometry": {
        "type": "Point",
        "coordinates": [
          -81.37472565430568,
          48.570031478294936
        ]
      }
    },
    {
      "type": "Feature",
      "properties": {
        "norad_id": 41586,
        "name": "BEIDOU-2 G7 (C03)",
        "group": "gnss",
        "lat": 1.5956947724053403,
        "lon": -175.20240919725669,
        "alt_km": 35796.1652559026,
        "timestamp": "2025-12-24T22:42:22.273723+00:00",
        "meta_object_name": "BEIDOU-2 G7 (C03)",
        "meta_object_id": "2016-037A",
        "meta_epoch": "2025-12-24T06:46:33.984192",
        "meta_mean_motion": 1.00269256,
        "meta_eccentricity": 0.000522,
        "meta_inclination": 1.7834,
        "meta_ra_of_asc_node": 67.8882,
        "meta_arg_of_pericenter": 1.209,
        "meta_mean_anomaly": 236.0405,
        "meta_ephemeris_type": 0,
        "meta_classification_type": "U",
        "meta_norad_cat_id": 41586,
        "meta_element_set_no": 999,
        "meta_rev_at_epoch": 513,
        "meta_bstar": 0,
        "meta_mean_motion_dot": -3.33e-06,
        "meta_mean_motion_ddot": 0,
        "tle_line1": "1 41586U 16037A   25358.28233778 -.00000333  00000+0  00000+0 0  9992",
        "tle_line2": "2 41586   1.7834  67.8882 0005220   1.2090 236.0405  1.00269256  5139"
      },
      "geometry": {
        "type": "Point",
        "coordinates": [
          -175.20240919725669,
          1.5956947724053403
        ]
      }
    }
  ]
}